OBJECT_NAME,OBJECT_ID,EPOCH,MEAN_MOTION,ECCENTRICITY,INCLINATION,RA_OF_ASC_NODE,ARG_OF_PERICENTER,MEAN_ANOMALY,EPHEMERIS_TYPE,CLASSIFICATION_TYPE,NORAD_CAT_ID,ELEMENT_SET_NO,REV_AT_EPOCH,BSTAR,MEAN_MOTION_DOT,MEAN_MOTION_DDOT
SCD 1,1993-009B,2026-07-22T18:57:21.761280,14.46130844,.00419344,24.9709,347.7497,154.5396,349.9994,0,U,22490,999,76627,.47267425E-4,.359E-5,0
TECHSAT 1B (GO-32),1998-043D,2026-07-23T05:44:48.586272,14.24434488,.00023322,99.0092,197.9112,102.2054,257.9385,0,U,25397,999,45646,.39427354E-4,.45E-6,0
SCD 2,1998-060A,2026-07-23T08:01:40.140768,14.45536636,.00168957,24.9935,209.2393,144.3748,238.6600,0,U,25504,999,46556,.4107763E-4,.329E-5,0
DLR-TUBSAT,1999-029B,2026-07-23T06:05:50.706240,14.52434541,.00131568,98.6717,200.9486,238.1656,121.8258,0,U,25757,999,43848,.2909426E-4,.7E-6,0
TERRA,1999-068A,2026-07-23T05:55:49.358784,14.61128256,.00036546,97.9435,252.3598,107.0530,328.4031,0,U,25994,999,41487,.72007717E-4,.31E-5,0
MAROC-TUBSAT,2001-056D,2026-07-23T07:17:44.153664,13.70263768,.00204651,99.8105,21.8479,52.0406,71.8075,0,U,27004,999,23113,.32479899E-4,-.18E-6,0
AQUA,2002-022A,2026-07-23T04:27:20.255040,14.62137104,.00013644,98.4303,174.1934,102.1719,315.6143,0,U,27424,999,28853,.13449878E-3,.627E-5,0
SHIYAN-1 (SY-1),2004-012A,2026-07-23T04:28:00.464736,15.34601655,.00044588,97.8674,284.6144,238.6247,121.4559,0,U,28220,999,21661,.4055773E-3,.13523E-3,0
AURA,2004-026A,2026-07-23T03:19:14.412864,14.61376240,.0001438,98.3435,160.8945,93.8201,266.3164,0,U,28376,999,17146,.13515284E-3,.62E-5,0
IRS-P5 (CARTOSAT-1),2005-017A,2026-07-23T07:34:46.663968,14.91132260,.00009291,97.5308,225.7421,58.5890,301.5420,0,U,28649,999,14920,.10878656E-3,.1026E-4,0
SINAH 1,2005-043D,2026-07-23T06:34:09.134112,14.64179550,.00149538,98.2902,338.8169,158.7110,201.4718,0,U,28893,999,10580,.64064042E-4,.288E-5,0
RESURS-DK 1,2006-021A,2026-07-23T04:36:48.958848,15.13340399,.00075633,69.9299,246.3397,262.6323,97.3984,0,U,29228,999,10802,.94295232E-4,.1576E-4,0
ARIRANG-2 (KOMPSAT-2),2006-031A,2026-07-23T07:22:22.152576,14.64678495,.00135554,97.8326,27.0084,324.2990,159.5290,0,U,29268,999,6676,.4343873E-4,.186E-5,0
LAPAN-TUBSAT,2007-001A,2026-07-23T06:42:52.566912,14.85980440,.0013553,98.1364,204.3207,70.5405,289.7272,0,U,29709,999,5651,.32835445E-4,.229E-5,0
HAIYANG-1B,2007-010A,2026-07-23T05:21:51.856704,14.31034870,.00148288,98.3523,184.6758,94.0145,266.2734,0,U,31113,999,579,.47749707E-4,.84E-6,0
COSMO-SKYMED 1,2007-023A,2026-07-23T07:00:24.683904,14.97254378,.00019348,97.8863,36.4546,93.2124,266.9319,0,U,31598,999,3519,.27252828E-3,.3096E-4,0
TERRASAR-X,2007-026A,2026-07-22T11:55:52.401792,15.19149840,.00017968,97.4457,210.7016,80.1769,279.9668,0,U,31698,999,5858,.15522946E-4,.259E-5,0
WORLDVIEW-1 (WV-1),2007-041A,2026-07-23T06:17:49.269120,15.24624893,.00023096,97.3902,323.5035,176.1992,183.9264,0,U,32060,999,4837,.23989567E-3,.5849E-4,0
YAOGAN-3,2007-055A,2026-07-23T07:17:11.264640,14.90904040,.00015222,97.8148,233.8248,87.3173,272.8219,0,U,32289,999,1125,.24637556E-3,.2374E-4,0
COSMO-SKYMED 2,2007-059A,2026-07-23T06:42:02.208672,14.82155440,.00014819,97.8898,27.3558,93.7243,266.4139,0,U,32376,999,735,.5284022E-4,.368E-5,0
RADARSAT-2,2007-061A,2026-07-23T06:47:06.848160,14.29980953,.00013201,98.5795,210.7005,86.4441,273.6892,0,U,32382,999,97111,.57178768E-4,.104E-5,0
CARTOSAT-2A,2008-021A,2026-07-23T07:16:08.804352,14.79284060,.00117427,97.7616,251.7753,2.1714,357.9547,0,U,32783,999,98414,.11825397E-3,.83E-5,0
HUANJING 1A (HJ-1A),2008-041A,2026-07-23T07:21:18.773856,14.84062901,.00197441,97.6709,188.7536,24.5652,335.6499,0,U,33320,999,96376,.17558915E-3,.1417E-4,0
HUANJING 1B (HJ-1B),2008-041B,2026-07-23T07:00:42.395904,14.83376210,.00379168,97.6548,191.8017,65.9041,294.6133,0,U,33321,999,96376,.90341745E-4,.698E-5,0
GEOEYE 1,2008-042A,2026-07-23T05:20:33.369216,14.64654399,.00034212,98.1320,277.7241,316.3959,43.6973,0,U,33331,999,95542,.76847507E-4,.361E-5,0
THEOS,2008-049A,2026-07-23T06:05:06.020160,14.20136949,.00011442,98.5552,260.3624,94.3672,265.7636,0,U,33396,999,92308,-.71494864E-4,-.195E-5,0
COSMO-SKYMED 3,2008-054A,2026-07-23T06:18:08.893152,15.07152906,.00167658,97.8253,63.4294,138.9378,221.3115,0,U,33412,999,96237,.18334125E-3,.2698E-4,0
YAOGAN-4,2008-061A,2026-07-23T06:12:49.882752,14.83262851,.00132206,97.9302,137.5044,318.1017,41.9184,0,U,33446,999,95101,.11362536E-3,.876E-5,0
GOSAT (IBUKI),2009-002A,2026-07-23T06:35:51.843840,14.67540991,.00010953,98.0915,314.9090,93.1700,266.9630,0,U,33492,999,93675,.10004095E-3,.519E-5,0
DEIMOS-1,2009-041A,2026-07-23T06:28:40.136736,14.75269047,.00027958,97.7448,359.9418,81.9465,278.2062,0,U,35681,999,91220,.65619746E-4,.396E-5,0
