SCD 1                   
1 22490U 93009B   26203.78983520  .00000359  00000+0  47267-4 0  9999
2 22490  24.9709 347.7497 0041934 154.5396 349.9994 14.46130844766275
TECHSAT 1B (GO-32)      
1 25397U 98043D   26204.23945123  .00000045  00000+0  39427-4 0  9990
2 25397  99.0092 197.9112 0002332 102.2054 257.9385 14.24434488456467
SCD 2                   
1 25504U 98060A   26204.33449237  .00000329  00000+0  41078-4 0  9995
2 25504  24.9935 209.2393 0016895 144.3748 238.6600 14.45536636465562
DLR-TUBSAT              
1 25757U 99029B   26204.25405910  .00000070  00000+0  29094-4 0  9999
2 25757  98.6717 200.9486 0013156 238.1656 121.8258 14.52434541438489
TERRA                   
1 25994U 99068A   26204.24709906  .00000310  00000+0  72008-4 0  9996
2 25994  97.9435 252.3598 0003654 107.0530 328.4031 14.61128256414877
MAROC-TUBSAT            
1 27004U 01056D   26204.30398326 -.00000018  00000+0  32480-4 0  9993
2 27004  99.8105  21.8479 0020465  52.0406  71.8075 13.70263768231133
AQUA                    
1 27424U 02022A   26204.18565110  .00000627  00000+0  13450-3 0  9996
2 27424  98.4303 174.1934 0001364 102.1719 315.6143 14.62137104288530
SHIYAN-1 (SY-1)         
1 28220U 04012A   26204.18611649  .00013523  00000+0  40558-3 0  9999
2 28220  97.8674 284.6144 0004458 238.6247 121.4559 15.34601655216618
AURA                    
1 28376U 04026A   26204.13836126  .00000620  00000+0  13515-3 0  9997
2 28376  98.3435 160.8945 0001438  93.8201 266.3164 14.61376240171463
IRS-P5 (CARTOSAT-1)     
1 28649U 05017A   26204.31581787  .00001026  00000+0  10879-3 0  9992
2 28649  97.5308 225.7421 0000929  58.5890 301.5420 14.91132260149201
SINAH 1                 
1 28893U 05043D   26204.27371683  .00000288  00000+0  64064-4 0  9994
2 28893  98.2902 338.8169 0014953 158.7110 201.4718 14.64179550105804
RESURS-DK 1             
1 29228U 06021A   26204.19223332  .00001576  00000+0  94295-4 0  9992
2 29228  69.9299 246.3397 0007563 262.6323  97.3984 15.13340399108027
ARIRANG-2 (KOMPSAT-2)   
1 29268U 06031A   26204.30720084  .00000186  00000+0  43439-4 0  9996
2 29268  97.8326  27.0084 0013555 324.2990 159.5290 14.64678495 66763
LAPAN-TUBSAT            
1 29709U 07001A   26204.27977508  .00000229  00000+0  32835-4 0  9991
2 29709  98.1364 204.3207 0013553  70.5405 289.7272 14.85980440 56513
HAIYANG-1B              
1 31113U 07010A   26204.22351686  .00000084  00000+0  47750-4 0  9992
2 31113  98.3523 184.6758 0014828  94.0145 266.2734 14.31034870  5798
COSMO-SKYMED 1          
1 31598U 07023A   26204.29195236  .00003096  00000+0  27253-3 0  9998
2 31598  97.8863  36.4546 0001934  93.2124 266.9319 14.97254378 35199
TERRASAR-X              
1 31698U 07026A   26203.49713428  .00000259  00000+0  15523-4 0  9998
2 31698  97.4457 210.7016 0001796  80.1769 279.9668 15.19149840 58581
WORLDVIEW-1 (WV-1)      
1 32060U 07041A   26204.26237580  .00005849  00000+0  23990-3 0  9991
2 32060  97.3902 323.5035 0002309 176.1992 183.9264 15.24624893 48372
YAOGAN-3                
1 32289U 07055A   26204.30360260  .00002374  00000+0  24638-3 0  9996
2 32289  97.8148 233.8248 0001522  87.3173 272.8219 14.90904040 11253
COSMO-SKYMED 2          
1 32376U 07059A   26204.27919223  .00000368  00000+0  52840-4 0  9990
2 32376  97.8898  27.3558 0001481  93.7243 266.4139 14.82155440  7354
RADARSAT-2              
1 32382U 07061A   26204.28271815  .00000104  00000+0  57179-4 0  9997
2 32382  98.5795 210.7005 0001320  86.4441 273.6892 14.29980953971117
CARTOSAT-2A             
1 32783U 08021A   26204.30287968  .00000830  00000+0  11825-3 0  9991
2 32783  97.7616 251.7753 0011742   2.1714 357.9547 14.79284060984148
HUANJING 1A (HJ-1A)     
1 33320U 08041A   26204.30646729  .00001417  00000+0  17559-3 0  9997
2 33320  97.6709 188.7536 0019744  24.5652 335.6499 14.84062901963763
HUANJING 1B (HJ-1B)     
1 33321U 08041B   26204.29215736  .00000698  00000+0  90342-4 0  9998
2 33321  97.6548 191.8017 0037916  65.9041 294.6133 14.83376210963765
GEOEYE 1                
1 33331U 08042A   26204.22260844  .00000361  00000+0  76848-4 0  9995
2 33331  98.1320 277.7241 0003421 316.3959  43.6973 14.64654399955422
THEOS                   
1 33396U 08049A   26204.25354190 -.00000195  00000+0 -71495-4 0  9994
2 33396  98.5552 260.3624 0001144  94.3672 265.7636 14.20136949923080
COSMO-SKYMED 3          
1 33412U 08054A   26204.26260293  .00002698  00000+0  18334-3 0  9990
2 33412  97.8253  63.4294 0016765 138.9378 221.3115 15.07152906962379
YAOGAN-4                
1 33446U 08061A   26204.25891068  .00000876  00000+0  11363-3 0  9995
2 33446  97.9302 137.5044 0013220 318.1017  41.9184 14.83262851951018
GOSAT (IBUKI)           
1 33492U 09002A   26204.27490560  .00000519  00000+0  10004-3 0  9991
2 33492  98.0915 314.9090 0001095  93.1700 266.9630 14.67540991936754
DEIMOS-1                
1 35681U 09041A   26204.26990899  .00000396  00000+0  65620-4 0  9993
2 35681  97.7448 359.9418 0002795  81.9465 278.2062 14.75269047912205
